XRISM                   
1 57800U 23137A   24032.77250480  .00005200  00000+0  40774-3 0  9991
2 57800  31.0027 159.7364 0009854 297.8429  62.1208 14.99425947 22105
